{
  "norad_id": 61240,
  "name": "2024-174C",
  "history": [
    {
      "epoch": "2026-03-26T07:47:49.449696",
      "apogee_km": 512.6714413403643,
      "perigee_km": 502.0842736954446,
      "latitude_deg": 44.66697550519035,
      "longitude_deg": 143.1882774401456,
      "semi_major_axis_km": 6885.514857517905,
      "eccentricity": 0.0007688,
      "inclination_deg": 97.4458,
      "raan_deg": 94.4991,
      "arg_perigee_deg": 171.0233,
      "mean_anomaly_deg": 189.114,
      "mean_motion_rev_day": 15.19491001
    }
  ]
}